*******************************************************************************
JPL/HORIZONS               3753 Cruithne (1986 TO)         2023-May-05 15:40:43
Rec #:    3753 (+COV) Soln.date: 2023-Mar-01_06:10:23   # obs: 1216 (1973-2022)
 
IAU76/J2000 helio. ecliptic osc. elements (au, days, deg., period=Julian yrs):
 
  EPOCH=  2456900.5 ! 2014-Aug-31.00 (TDB)         Residual RMS= .35645
   EC= .5148627256994029   QR= .4840184658385133   TP= 2457012.169995938
   OM= 126.2462939076055   W=  43.80978547847901   IN= 19.80747881540994
   A= .9976938311662474    MA= 249.5553600271496   ADIST= 1.511369196493981
   PER= .99656             N= .9890269900000001    ANGMOM= .014729875
   DAN= .53459             DDN= 1.16671            L= 168.3137556
   B= 13.566979            MOID= .0710535          TP= 2014-Dec-20.6699959380
 
Asteroid physical parameters (km, seconds, rotational period in hours):
   GM= n.a.                RAD= 1.0355             ROTPER= 27.3099
   H= 15.5                 G= .150                 B-V= n.a.
                           ALBEDO= .365            STYP= Q
 
ASTEROID comments: 
1: soln ref.= JPL#240, OCC=0
2: source=ORB
*******************************************************************************

  
  

*******************************************************************************
Ephemeris / WWW_USER Fri May  5 15:40:43 2023 Pasadena, USA      / Horizons
*******************************************************************************
Target body name: 3753 Cruithne (1986 TO)         {source: JPL#240}
Center body name: Earth-Moon Barycenter (3)       {source: DE441}
Center-site name: BODY CENTER
*******************************************************************************
Start time      : A.D. 2007-Sep-01 00:00:00.0000 TDB
Stop  time      : A.D. 2008-Aug-01 00:00:00.0000 TDB
Step-size       : 1440 minutes
*******************************************************************************
Center geodetic : 0.0, 0.0, 0.0                   {E-lon(deg),Lat(deg),Alt(km)}
Center cylindric: 0.0, 0.0, 0.0                   {E-lon(deg),Dxy(km),Dz(km)}
Center radii    : (undefined)
Small perturbers: Yes                             {source: SB441-N16}
Output units    : KM-S
Calendar mode   : Mixed Julian/Gregorian
Output type     : GEOMETRIC cartesian states
Output format   : 1 (position only)
Reference frame : Ecliptic of J2000.0
*******************************************************************************
Initial IAU76/J2000 heliocentric ecliptic osculating elements (au, days, deg.):
  EPOCH=  2456900.5 ! 2014-Aug-31.00 (TDB)         Residual RMS= .35645        
   EC= .5148627256994029   QR= .4840184658385133   TP= 2457012.169995938       
   OM= 126.2462939076055   W=  43.80978547847901   IN= 19.80747881540994       
  Equivalent ICRF heliocentric cartesian coordinates (au, au/d):
   X= 1.215347990905840E+00  Y= 5.153520927692684E-01  Z=-2.481738801145509E-01
  VX=-7.990656955364673E-03 VY= 8.039467650712289E-03 VZ= 3.939584837771865E-03
Asteroid physical parameters (km, seconds, rotational period in hours):        
   GM= n.a.                RAD= 1.0355             ROTPER= 27.3099             
   H= 15.5                 G= .150                 B-V= n.a.                   
                           ALBEDO= .365            STYP= Q                     
*******************************************************************************
            JDTDB,            Calendar Date (TDB),                      X,                      Y,                      Z,
**************************************************************************************************************************
$$SOE
2454650.500000000, A.D. 2008-Jul-03 00:00:00.0000,  1.860321416950191E+08,  1.105117180649125E+08, -5.446197593518980E+07,
2454651.500000000, A.D. 2008-Jul-04 00:00:00.0000,  1.836689282432576E+08,  1.114108241495420E+08, -5.479699222072639E+07,
2454652.500000000, A.D. 2008-Jul-05 00:00:00.0000,  1.812962703379679E+08,  1.122712836461802E+08, -5.512730164774250E+07,
2454653.500000000, A.D. 2008-Jul-06 00:00:00.0000,  1.789148404865500E+08,  1.130931344434660E+08, -5.545287223342630E+07,
2454654.500000000, A.D. 2008-Jul-07 00:00:00.0000,  1.765253076845791E+08,  1.138764255240986E+08, -5.577367172279008E+07,
2454655.500000000, A.D. 2008-Jul-08 00:00:00.0000,  1.741283372442900E+08,  1.146212168866361E+08, -5.608966757880207E+07,
2454656.500000000, A.D. 2008-Jul-09 00:00:00.0000,  1.717245906232988E+08,  1.153275794650198E+08, -5.640082697246052E+07,
2454657.500000000, A.D. 2008-Jul-10 00:00:00.0000,  1.693147252535644E+08,  1.159955950458764E+08, -5.670711677280500E+07,
2454658.500000000, A.D. 2008-Jul-11 00:00:00.0000,  1.668993943706149E+08,  1.166253561836780E+08, -5.700850353685740E+07,
2454659.500000000, A.D. 2008-Jul-12 00:00:00.0000,  1.644792468430825E+08,  1.172169661137420E+08, -5.730495349948120E+07,
2454660.500000000, A.D. 2008-Jul-13 00:00:00.0000,  1.620549270025911E+08,  1.177705386630595E+08, -5.759643256314625E+07,
2454661.500000000, A.D. 2008-Jul-14 00:00:00.0000,  1.596270744740435E+08,  1.182861981589040E+08, -5.788290628758703E+07,
2454662.500000000, A.D. 2008-Jul-15 00:00:00.0000,  1.571963240063518E+08,  1.187640793351570E+08, -5.816433987934165E+07,
2454663.500000000, A.D. 2008-Jul-16 00:00:00.0000,  1.547633053036502E+08,  1.192043272362768E+08, -5.844069818115968E+07,
2454664.500000000, A.D. 2008-Jul-17 00:00:00.0000,  1.523286428570246E+08,  1.196070971188256E+08, -5.871194566126854E+07,
2454665.500000000, A.D. 2008-Jul-18 00:00:00.0000,  1.498929557767907E+08,  1.199725543504665E+08, -5.897804640248867E+07,
2454666.500000000, A.D. 2008-Jul-19 00:00:00.0000,  1.474568576253402E+08,  1.203008743063410E+08, -5.923896409118954E+07,
2454667.500000000, A.D. 2008-Jul-20 00:00:00.0000,  1.450209562505708E+08,  1.205922422627343E+08, -5.949466200608080E+07,
2454668.500000000, A.D. 2008-Jul-21 00:00:00.0000,  1.425858536198938E+08,  1.208468532879501E+08, -5.974510300683319E+07,
2454669.500000000, A.D. 2008-Jul-22 00:00:00.0000,  1.401521456548086E+08,  1.210649121303288E+08, -5.999024952252689E+07,
2454670.500000000, A.D. 2008-Jul-23 00:00:00.0000,  1.377204220660156E+08,  1.212466331033635E+08, -6.023006353992455E+07,
2454671.500000000, A.D. 2008-Jul-24 00:00:00.0000,  1.352912661890349E+08,  1.213922399678960E+08, -6.046450659156668E+07,
2454672.500000000, A.D. 2008-Jul-25 00:00:00.0000,  1.328652548202911E+08,  1.215019658113939E+08, -6.069353974368559E+07,
2454673.500000000, A.D. 2008-Jul-26 00:00:00.0000,  1.304429580536363E+08,  1.215760529243308E+08, -6.091712358393151E+07,
2454674.500000000, A.D. 2008-Jul-27 00:00:00.0000,  1.280249391172999E+08,  1.216147526737059E+08, -6.113521820890184E+07,
2454675.500000000, A.D. 2008-Jul-28 00:00:00.0000,  1.256117542112844E+08,  1.216183253737227E+08, -6.134778321145907E+07,
2454676.500000000, A.D. 2008-Jul-29 00:00:00.0000,  1.232039523452463E+08,  1.215870401536417E+08, -6.155477766782226E+07,
2454677.500000000, A.D. 2008-Jul-30 00:00:00.0000,  1.208020751769641E+08,  1.215211748227609E+08, -6.175616012441141E+07,
2454678.500000000, A.D. 2008-Jul-31 00:00:00.0000,  1.184066568514975E+08,  1.214210157324417E+08, -6.195188858442674E+07,
2454679.500000000, A.D. 2008-Aug-01 00:00:00.0000,  1.160182238411584E+08,  1.212868576350394E+08, -6.214192049414673E+07,
